COSMOS 2425 (716)       
1 29670U 06062A   18287.28080017  .00000012  00000-0  10000-3 0  9997
2 29670  65.2226 288.5093 0021064 338.0127  19.5658  2.13104916 91844
COSMOS 2426 (717)       
1 29671U 06062B   18286.76968872  .00000007  00000-0  10000-3 0  9998
2 29671  65.2406 288.6285 0018501 174.4904   5.8643  2.13103005 91846
COSMOS 2433 (720)       
1 32275U 07052A   18287.48046649 -.00000039  00000-0  10000-3 0  9997
2 32275  65.7465  49.3623 0002388 209.9960 131.6427  2.13104577 85363
COSMOS 2432 (719)       
1 32276U 07052B   18287.50221300 -.00000038  00000-0  10000-3 0  9999
2 32276  65.7587  49.4414 0008839 336.7723 333.2431  2.13103815 85360
COSMOS 2434 (721)       
1 32393U 07065A   18286.96597924  .00000009  00000-0  00000+0 0  9992
2 32393  64.8372 287.4394 0002673 161.9513  32.7670  2.13102980 84062
COSMOS 2436 (723)       
1 32395U 07065C   18287.21336966  .00000011  00000-0  10000-3 0  9998
2 32395  64.8473 287.4816 0014356 349.2221  86.3733  2.13104325 84007
COSMOS 2456 (730)       
1 36111U 09070A   18286.91526639  .00000002  00000-0  00000+0 0  9995
2 36111  64.1877 167.0447 0003943 324.6398   3.7483  2.13103066 68720
COSMOS 2457 (733)       
1 36112U 09070B   18286.91821704  .00000002  00000-0  00000+0 0  9997
2 36112  64.1692 166.9515 0005941 162.7633 294.1615  2.13101638 68730
COSMOS 2458 (734)       
1 36113U 09070C   18287.46134961 -.00000002  00000-0  10000-3 0  9997
2 36113  64.1753 166.9464 0002417  29.0396 168.9731  2.13091440 68745
COSMOS 2459 (731)       
1 36400U 10007A   18286.75022256 -.00000042  00000-0  10000-3 0  9996
2 36400  65.6531  48.4345 0024720 354.1485   5.2402  2.13102171 67075
COSMOS 2461 (735)       
1 36401U 10007B   18287.27507894 -.00000041  00000-0  10000-3 0  9990
2 36401  65.6482  48.3915 0007611  81.2755 231.3418  2.13102069 67087
COSMOS 2460 (732)       
1 36402U 10007C   18286.99843992 -.00000041  00000-0  10000-3 0  9991
2 36402  65.6359  48.3667 0001977 136.2101   4.5614  2.13101577 67081
COSMOS 2464 (736)       
1 37139U 10041C   18287.49645721  .00000013  00000-0  00000+0 0  9996
2 37139  64.4394 287.1673 0022452   5.7718 103.7242  2.13102715 63169
COSMOS 2471 (701K)      
1 37372U 11009A   18286.64704559 -.00000042  00000-0  00000-0 0  9995
2 37372  65.6330  48.3223 0008350 220.8830 156.8297  2.13107640 59352
COSMOS 2474 (742)       
1 37829U 11055A   18286.49290300  .00000006  00000-0  00000-0 0  9999
2 37829  64.5099 167.8253 0007968 245.4444 336.4946  2.13101944 54710
COSMOS 2476 (744)       
1 37867U 11064A   18286.95432079  .00000002  00000-0  00000+0 0  9998
2 37867  64.4905 167.8689 0017823 239.9354  22.0538  2.13101965 54076
COSMOS 2477 (745)       
1 37868U 11064B   18287.49388314 -.00000002  00000-0  00000+0 0  9992
2 37868  64.5002 167.9009 0015586 241.2902 253.4774  2.13101904 54044
COSMOS 2475 (743)       
1 37869U 11064C   18286.81587038  .00000003  00000-0  00000+0 0  9992
2 37869  64.5060 167.9193 0019776 266.6646  24.8182  2.13102282 54036
COSMOS 2485 (747)       
1 39155U 13019A   18286.96114438  .00000002  00000-0  00000+0 0  9999
2 39155  64.6596 168.0035 0018390 235.1276  76.9498  2.13102075 42540
COSMOS 2492 (754)       
1 39620U 14012A   18286.98813444 -.00000042  00000-0  10000-3 0  9995
2 39620  65.5261  48.2354 0012133 330.2670  37.4060  2.13103403 35504
COSMOS 2500 (755)       
1 40001U 14032A   18287.48322341 -.00000041  00000-0  00000+0 0  9993
2 40001  65.4678  48.1796 0007106 190.6505  58.8441  2.13102666 33720
COSMOS 2501 (702K)      
1 40315U 14075A   18286.75979507  .00000004  00000-0  00000+0 0  9997
2 40315  64.1640 288.3625 0017466 211.6353   3.2484  2.13098583 30110
COSMOS 2514 (751)       
1 41330U 16008A   18287.45810653 -.00000042  00000-0  00000+0 0  9990
2 41330  65.2694  48.2041 0010089 204.4102 206.9614  2.13103154 20892
COSMOS 2516 (753)       
1 41554U 16032A   18287.00986972  .00000007  00000-0  00000+0 0  9994
2 41554  64.3845 288.2517 0014883 223.7200  94.6361  2.13101720 18481
COSMOS 2522 (752)       
1 42939U 17055A   18286.55637671  .00000004  00000-0  00000+0 0  9993
2 42939  64.6161 288.2686 0010275 246.5743 310.3106  2.13101969  8238
